start=new Date('2022-10-09T00:00:00.000Z').valueOf();
sats=[{"RA_OF_ASC_NODE":"121.0409","OBJECT_NAME":"STARLINK-3979","EPHEMERIS_TYPE":"0","OBJECT_TYPE":"PAYLOAD","DECAY_DATE":null,"COUNTRY_CODE":"US","ARG_OF_PERICENTER":"41.7176","MEAN_MOTION_DOT":"-0.00000713","INCLINATION":"53.2178","TIME_SYSTEM":"UTC","BSTAR":"-0.00002670700000","GP_ID":"214508448","SITE":"AFETR","PERIAPSIS":"538.571","NORAD_CAT_ID":"52608","TLE_LINE2":"2 52608  53.2178 121.0409 0001715  41.7176 318.3946 15.08836218 22477","MEAN_ELEMENT_THEORY":"SGP4","EPOCH":"2022-10-08T19:32:34.784736","CLASSIFICATION_TYPE":"U","APOAPSIS":"540.943","PERIOD":"95.438","ELEMENT_SET_NO":"999","TLE_LINE1":"1 52608U 22052L   22281.81429149 -.00000713  00000-0 -26707-4 0  9994","MEAN_MOTION":"15.08836218","FILE":"3596607","MEAN_MOTION_DDOT":"0.0000000000000","REF_FRAME":"TEME","REV_AT_EPOCH":"2247","SEMIMAJOR_AXIS":"6917.892","MEAN_ANOMALY":"318.3946","OBJECT_ID":"2022-052L","CENTER_NAME":"EARTH","RCS_SIZE":"LARGE","ECCENTRICITY":"0.00017150","LAUNCH_DATE":"2022-05-14"},{"BSTAR":"0.00024783000000","TIME_SYSTEM":"UTC","GP_ID":"214508286","SITE":"AFETR","PERIAPSIS":"538.489","NORAD_CAT_ID":"52609","TLE_LINE2":"2 52609  53.2172 121.0898 0001814  44.8764 315.2375 15.08840552 22479","RA_OF_ASC_NODE":"121.0898","OBJECT_NAME":"STARLINK-3997","EPHEMERIS_TYPE":"0","OBJECT_TYPE":"PAYLOAD","DECAY_DATE":null,"MEAN_MOTION_DOT":"0.00003658","COUNTRY_CODE":"US","ARG_OF_PERICENTER":"44.8764","INCLINATION":"53.2172","FILE":"3596607","MEAN_MOTION_DDOT":"0.0000000000000","REF_FRAME":"TEME","REV_AT_EPOCH":"2247","SEMIMAJOR_AXIS":"6917.879","CENTER_NAME":"EARTH","OBJECT_ID":"2022-052M","MEAN_ANOMALY":"315.2375","RCS_SIZE":"LARGE","ECCENTRICITY":"0.00018140","LAUNCH_DATE":"2022-05-14","MEAN_ELEMENT_THEORY":"SGP4","EPOCH":"2022-10-08T19:23:21.187968","CLASSIFICATION_TYPE":"U","APOAPSIS":"540.999","PERIOD":"95.438","ELEMENT_SET_NO":"999","TLE_LINE1":"1 52609U 22052M   22281.80788412  .00003658  00000-0  24783-3 0  9995","MEAN_MOTION":"15.08840552"},{"RA_OF_ASC_NODE":"125.8549","OBJECT_NAME":"STARLINK-3998","EPHEMERIS_TYPE":"0","OBJECT_TYPE":"PAYLOAD","DECAY_DATE":null,"ARG_OF_PERICENTER":"36.0445","COUNTRY_CODE":"US","MEAN_MOTION_DOT":"0.00000746","INCLINATION":"53.2159","TIME_SYSTEM":"UTC","BSTAR":"0.00006495500000","GP_ID":"214478866","SITE":"AFETR","PERIAPSIS":"538.292","NORAD_CAT_ID":"52610","TLE_LINE2":"2 52610  53.2159 125.8549 0002089  36.0445 324.0687 15.08842840 22774","MEAN_ELEMENT_THEORY":"SGP4","EPOCH":"2022-10-08T20:32:50.569440","CLASSIFICATION_TYPE":"U","APOAPSIS":"541.182","PERIOD":"95.437","ELEMENT_SET_NO":"999","TLE_LINE1":"1 52610U 22052N   22281.85614085  .00000746  00000-0  64955-4 0  9997","MEAN_MOTION":"15.08842840","FILE":"3596398","MEAN_MOTION_DDOT":"0.0000000000000","REF_FRAME":"TEME","REV_AT_EPOCH":"2277","SEMIMAJOR_AXIS":"6917.872","OBJECT_ID":"2022-052N","MEAN_ANOMALY":"324.0687","CENTER_NAME":"EARTH","RCS_SIZE":"LARGE","ECCENTRICITY":"0.00020890","LAUNCH_DATE":"2022-05-14"},{"TLE_LINE1":"1 52611U 22052P   22281.84878793  .00000515  00000-0  50480-4 0  9997","MEAN_MOTION":"15.08838404","ELEMENT_SET_NO":"999","PERIOD":"95.438","CLASSIFICATION_TYPE":"U","APOAPSIS":"540.894","MEAN_ELEMENT_THEORY":"SGP4","EPOCH":"2022-10-08T20:22:15.277152","ECCENTRICITY":"0.00016540","LAUNCH_DATE":"2022-05-14","OBJECT_ID":"2022-052P","MEAN_ANOMALY":"310.4978","CENTER_NAME":"EARTH","RCS_SIZE":"LARGE","MEAN_MOTION_DDOT":"0.0000000000000","REF_FRAME":"TEME","REV_AT_EPOCH":"2240","SEMIMAJOR_AXIS":"6917.885","FILE":"3596607","INCLINATION":"53.2164","DECAY_DATE":null,"OBJECT_TYPE":"PAYLOAD","ARG_OF_PERICENTER":"49.6159","COUNTRY_CODE":"US","MEAN_MOTION_DOT":"0.00000515","EPHEMERIS_TYPE":"0","RA_OF_ASC_NODE":"125.8880","OBJECT_NAME":"STARLINK-3980","NORAD_CAT_ID":"52611","TLE_LINE2":"2 52611  53.2164 125.8880 0001654  49.6159 310.4978 15.08838404 22401","SITE":"AFETR","PERIAPSIS":"538.606","BSTAR":"0.00005048000000","TIME_SYSTEM":"UTC","GP_ID":"214508543"},{"BSTAR":"0.00002921900000","TIME_SYSTEM":"UTC","GP_ID":"214478880","NORAD_CAT_ID":"52612","TLE_LINE2":"2 52612  53.2178 121.0675 0001735  45.7639 314.3495 15.08837321 22849","SITE":"AFETR","PERIAPSIS":"538.553","EPHEMERIS_TYPE":"0","RA_OF_ASC_NODE":"121.0675","OBJECT_NAME":"STARLINK-4002","INCLINATION":"53.2178","DECAY_DATE":null,"OBJECT_TYPE":"PAYLOAD","MEAN_MOTION_DOT":"0.00000177","COUNTRY_CODE":"US","ARG_OF_PERICENTER":"45.7639","MEAN_MOTION_DDOT":"0.0000000000000","REF_FRAME":"TEME","REV_AT_EPOCH":"2284","SEMIMAJOR_AXIS":"6917.889","FILE":"3596399","ECCENTRICITY":"0.00017350","LAUNCH_DATE":"2022-05-14","CENTER_NAME":"EARTH","OBJECT_ID":"2022-052Q","MEAN_ANOMALY":"314.3495","RCS_SIZE":"LARGE","CLASSIFICATION_TYPE":"U","APOAPSIS":"540.954","MEAN_ELEMENT_THEORY":"SGP4","EPOCH":"2022-10-08T19:27:16.255584","TLE_LINE1":"1 52612U 22052Q   22281.81060481  .00000177  00000-0  29219-4 0  9992","MEAN_MOTION":"15.08837321","PERIOD":"95.438","ELEMENT_SET_NO":"999"},{"OBJECT_TYPE":"PAYLOAD","DECAY_DATE":null,"MEAN_MOTION_DOT":"0.00001277","COUNTRY_CODE":"US","ARG_OF_PERICENTER":"72.3871","INCLINATION":"53.2149","RA_OF_ASC_NODE":"111.1379","OBJECT_NAME":"STARLINK-3921","EPHEMERIS_TYPE":"0","SITE":"AFETR","PERIAPSIS":"538.781","NORAD_CAT_ID":"52613","TLE_LINE2":"2 52613  53.2149 111.1379 0001390  72.3871 287.7273 15.08841056 22601","TIME_SYSTEM":"UTC","BSTAR":"0.00009828300000","GP_ID":"214508703","ELEMENT_SET_NO":"999","PERIOD":"95.437","TLE_LINE1":"1 52613U 22052R   22281.79312528  .00001277  00000-0  98283-4 0  9991","MEAN_MOTION":"15.08841056","MEAN_ELEMENT_THEORY":"SGP4","EPOCH":"2022-10-08T19:02:06.024192","CLASSIFICATION_TYPE":"U","APOAPSIS":"540.704","CENTER_NAME":"EARTH","OBJECT_ID":"2022-052R","MEAN_ANOMALY":"287.7273","RCS_SIZE":"LARGE","ECCENTRICITY":"0.00013900","LAUNCH_DATE":"2022-05-14","FILE":"3596607","MEAN_MOTION_DDOT":"0.0000000000000","REF_FRAME":"TEME","REV_AT_EPOCH":"2260","SEMIMAJOR_AXIS":"6917.877"},{"INCLINATION":"53.2152","OBJECT_TYPE":"PAYLOAD","DECAY_DATE":null,"COUNTRY_CODE":"US","MEAN_MOTION_DOT":"0.00001608","ARG_OF_PERICENTER":"55.8796","EPHEMERIS_TYPE":"0","RA_OF_ASC_NODE":"111.1223","OBJECT_NAME":"STARLINK-3982","NORAD_CAT_ID":"52614","TLE_LINE2":"2 52614  53.2152 111.1223 0001799  55.8796 304.2366 15.08840275 22979","SITE":"AFETR","PERIAPSIS":"538.500","BSTAR":"0.00011909000000","TIME_SYSTEM":"UTC","GP_ID":"214478793","TLE_LINE1":"1 52614U 22052S   22281.79680838  .00001608  00000-0  11909-3 0  9991","MEAN_MOTION":"15.08840275","ELEMENT_SET_NO":"999","PERIOD":"95.438","CLASSIFICATION_TYPE":"U","APOAPSIS":"540.989","MEAN_ELEMENT_THEORY":"SGP4","EPOCH":"2022-10-08T19:07:24.244032","ECCENTRICITY":"0.00017990","LAUNCH_DATE":"2022-05-14","OBJECT_ID":"2022-052S","CENTER_NAME":"EARTH","MEAN_ANOMALY":"304.2366","RCS_SIZE":"LARGE","MEAN_MOTION_DDOT":"0.0000000000000","REF_FRAME":"TEME","REV_AT_EPOCH":"2297","SEMIMAJOR_AXIS":"6917.880","FILE":"3596401"},{"SEMIMAJOR_AXIS":"6917.884","REV_AT_EPOCH":"2239","REF_FRAME":"TEME","MEAN_MOTION_DDOT":"0.0000000000000","FILE":"3596607","LAUNCH_DATE":"2022-05-14","ECCENTRICITY":"0.00017170","RCS_SIZE":"LARGE","MEAN_ANOMALY":"297.8475","CENTER_NAME":"EARTH","OBJECT_ID":"2022-052T","APOAPSIS":"540.937","CLASSIFICATION_TYPE":"U","EPOCH":"2022-10-08T20:16:56.923392","MEAN_ELEMENT_THEORY":"SGP4","MEAN_MOTION":"15.08838812","TLE_LINE1":"1 52615U 22052T   22281.84510328  .00000527  00000-0  51209-4 0  9991","PERIOD":"95.438","ELEMENT_SET_NO":"999","GP_ID":"214508126","BSTAR":"0.00005120900000","TIME_SYSTEM":"UTC","TLE_LINE2":"2 52615  53.2173 125.9017 0001717  62.2691 297.8475 15.08838812 22391","NORAD_CAT_ID":"52615","PERIAPSIS":"538.561","SITE":"AFETR","EPHEMERIS_TYPE":"0","OBJECT_NAME":"STARLINK-4011","RA_OF_ASC_NODE":"125.9017","INCLINATION":"53.2173","COUNTRY_CODE":"US","ARG_OF_PERICENTER":"62.2691","MEAN_MOTION_DOT":"0.00000527","OBJECT_TYPE":"PAYLOAD","DECAY_DATE":null},{"INCLINATION":"53.2160","OBJECT_TYPE":"PAYLOAD","DECAY_DATE":null,"MEAN_MOTION_DOT":"0.00000441","COUNTRY_CODE":"US","ARG_OF_PERICENTER":"48.1931","EPHEMERIS_TYPE":"0","RA_OF_ASC_NODE":"110.8643","OBJECT_NAME":"STARLINK-4015","NORAD_CAT_ID":"52616","TLE_LINE2":"2 52616  53.2160 110.8643 0001667  48.1931 311.9204 15.08841220 22980","SITE":"AFETR","PERIAPSIS":"538.588","BSTAR":"0.00004582100000","TIME_SYSTEM":"UTC","GP_ID":"214478801","TLE_LINE1":"1 52616U 22052U   22281.85568735  .00000441  00000-0  45821-4 0  9996","MEAN_MOTION":"15.08841220","PERIOD":"95.437","ELEMENT_SET_NO":"999","APOAPSIS":"540.895","CLASSIFICATION_TYPE":"U","MEAN_ELEMENT_THEORY":"SGP4","EPOCH":"2022-10-08T20:32:11.387040","ECCENTRICITY":"0.00016670","LAUNCH_DATE":"2022-05-14","CENTER_NAME":"EARTH","MEAN_ANOMALY":"311.9204","OBJECT_ID":"2022-052U","RCS_SIZE":"LARGE","REF_FRAME":"TEME","MEAN_MOTION_DDOT":"0.0000000000000","SEMIMAJOR_AXIS":"6917.877","REV_AT_EPOCH":"2298","FILE":"3596401"},{"MEAN_MOTION_DDOT":"0.0000000000000","REF_FRAME":"TEME","REV_AT_EPOCH":"2298","SEMIMAJOR_AXIS":"6917.856","FILE":"3596402","ECCENTRICITY":"0.00013160","LAUNCH_DATE":"2022-05-14","CENTER_NAME":"EARTH","OBJECT_ID":"2022-052V","MEAN_ANOMALY":"293.5706","RCS_SIZE":"LARGE","CLASSIFICATION_TYPE":"U","APOAPSIS":"540.632","MEAN_ELEMENT_THEORY":"SGP4","EPOCH":"2022-10-08T20:21:35.773344","TLE_LINE1":"1 52617U 22052V   22281.84833071  .00002072  00000-0  14823-3 0  9993","MEAN_MOTION":"15.08847832","ELEMENT_SET_NO":"999","PERIOD":"95.437","TIME_SYSTEM":"UTC","BSTAR":"0.00014823000000","GP_ID":"214478921","NORAD_CAT_ID":"52617","TLE_LINE2":"2 52617  53.2148 110.8900 0001316  66.5424 293.5706 15.08847832 22982","SITE":"AFETR","PERIAPSIS":"538.811","EPHEMERIS_TYPE":"0","RA_OF_ASC_NODE":"110.8900","OBJECT_NAME":"STARLINK-3996","INCLINATION":"53.2148","OBJECT_TYPE":"PAYLOAD","DECAY_DATE":null,"COUNTRY_CODE":"US","MEAN_MOTION_DOT":"0.00002072","ARG_OF_PERICENTER":"66.5424"}];
